{
  "last_updated": "2026-01-31T06:00:02.016855",
  "satellites": {
    "98592": {
      "name": "DUTHSat-2",
      "norad_id": "98592",
      "tle": "1 64530U 25135C   26029.88647474  .00018378  00000-0  78304-3 0  9993\n2 64530  97.4482 146.3754 0004442 322.7670  37.3258 15.23003720 33855",
      "epoch": "2026-01-29T21:16:31.417536",
      "fetched_at": "2026-01-31T06:00:02.172895",
      "source": "satnogs"
    },
    "98530": {
      "name": "LAMARR",
      "norad_id": "98530",
      "tle": "1 66673U 25276H   26026.90917087  .00034524  00000-0  16680-2 0  9998\n2 66673  97.4301 102.8338 0007597 141.5941 218.5835 15.18529012  8972",
      "epoch": "2026-01-26T21:49:12.363168",
      "fetched_at": "2026-01-28T06:00:02.884758",
      "source": "satnogs",
      "note": "Using previous TLE (fetch/manual failed today)"
    },
    "98529": {
      "name": "DIRAC",
      "norad_id": "98529",
      "tle": "1 66681U 25276R   26026.63281774  .00024563  00000-0  11745-2 0  9993\n2 66681  97.4280 102.5712 0006320 148.4115 211.7500 15.18972786  8932",
      "epoch": "2026-01-26T15:11:15.452736",
      "fetched_at": "2026-01-28T06:00:02.937152",
      "source": "satnogs",
      "note": "Using previous TLE (fetch/manual failed today)"
    },
    "98518": {
      "name": "MICE-1",
      "norad_id": "98518",
      "tle": "1 66684U 25276U   26030.13921492  .00006592  00000-0  32732-3 0  9996\n2 66684  97.4424 106.0963 0007050 111.0295 249.1694 15.17996680  9464",
      "epoch": "2026-01-30T03:20:28.169088",
      "fetched_at": "2026-01-31T06:00:02.331445",
      "source": "satnogs"
    }
  },
  "fetch_log": [
    {
      "norad_id": "98592",
      "name": "DUTHSat-2",
      "status": "success",
      "source": "satnogs",
      "timestamp": "2026-01-31T06:00:02.172899"
    },
    {
      "norad_id": "98530",
      "name": "LAMARR",
      "status": "fallback",
      "timestamp": "2026-01-31T06:00:02.225672"
    },
    {
      "norad_id": "98529",
      "name": "DIRAC",
      "status": "fallback",
      "timestamp": "2026-01-31T06:00:02.277937"
    },
    {
      "norad_id": "98518",
      "name": "MICE-1",
      "status": "success",
      "source": "satnogs",
      "timestamp": "2026-01-31T06:00:02.331448"
    }
  ]
}